{
  "type": "FeatureCollection",
  "features": [
    {
      "type": "Feature",
      "properties": {
        "norad_id": 66622,
        "name": "STARLINK-35950",
        "group": "last-30-days",
        "lat": 44.413696926076675,
        "lon": -116.51009187811614,
        "alt_km": 386.8016617017074,
        "timestamp": "2025-12-10T20:49:51.345687+00:00",
        "meta_object_name": "STARLINK-35950",
        "meta_object_id": "2025-271F",
        "meta_epoch": "2025-12-10T14:00:03.000384",
        "meta_mean_motion": 15.59334518,
        "meta_eccentricity": 0.00010546,
        "meta_inclination": 53.1603,
        "meta_ra_of_asc_node": 197.603,
        "meta_arg_of_pericenter": 114.9694,
        "meta_mean_anomaly": 148.2568,
        "meta_ephemeris_type": 0,
        "meta_classification_type": "U",
        "meta_norad_cat_id": 66622,
        "meta_element_set_no": 999,
        "meta_rev_at_epoch": 389,
        "meta_bstar": -0.027982595,
        "meta_mean_motion_dot": -0.0197472,
        "meta_mean_motion_ddot": 0,
        "tle_line1": "1 66622U 25271F   25344.58336806 -.01974720  00000+0 -27983-1 0  9997",
        "tle_line2": "2 66622  53.1603 197.6030 0001054 114.9694 148.2568 15.59334518  3890"
      },
      "geometry": {
        "type": "Point",
        "coordinates": [
          -116.51009187811614,
          44.413696926076675
        ]
      }
    },
    {
      "type": "Feature",
      "properties": {
        "norad_id": 66623,
        "name": "STARLINK-35920",
        "group": "last-30-days",
        "lat": 46.40569771791447,
        "lon": -111.84034630926769,
        "alt_km": 386.44321541513,
        "timestamp": "2025-12-10T20:49:51.345699+00:00",
        "meta_object_name": "STARLINK-35920",
        "meta_object_id": "2025-271G",
        "meta_epoch": "2025-12-10T14:00:03.000384",
        "meta_mean_motion": 15.59338939,
        "meta_eccentricity": 0.00011753,
        "meta_inclination": 53.1605,
        "meta_ra_of_asc_node": 197.594,
        "meta_arg_of_pericenter": 117.8022,
        "meta_mean_anomaly": 149.2582,
        "meta_ephemeris_type": 0,
        "meta_classification_type": "U",
        "meta_norad_cat_id": 66623,
        "meta_element_set_no": 999,
        "meta_rev_at_epoch": 389,
        "meta_bstar": -0.028112494,
        "meta_mean_motion_dot": -0.01983137,
        "meta_mean_motion_ddot": 0,
        "tle_line1": "1 66623U 25271G   25344.58336806 -.01983137  00000+0 -28112-1 0  9995",
        "tle_line2": "2 66623  53.1605 197.5940 0001175 117.8022 149.2582 15.59338939  3891"
      },
      "geometry": {
        "type": "Point",
        "coordinates": [
          -111.84034630926769,
          46.40569771791447
        ]
      }
    },
    {
      "type": "Feature",
      "properties": {
        "norad_id": 66624,
        "name": "STARLINK-35927",
        "group": "last-30-days",
        "lat": 45.43401613715815,
        "lon": -114.215053594566,
        "alt_km": 386.6797613255958,
        "timestamp": "2025-12-10T20:49:51.345709+00:00",
        "meta_object_name": "STARLINK-35927",
        "meta_object_id": "2025-271H",
        "meta_epoch": "2025-12-10T14:00:03.000384",
        "meta_mean_motion": 15.59337349,
        "meta_eccentricity": 0.00010206,
        "meta_inclination": 53.1604,
        "meta_ra_of_asc_node": 197.5989,
        "meta_arg_of_pericenter": 118.383,
        "meta_mean_anomaly": 146.7606,
        "meta_ephemeris_type": 0,
        "meta_classification_type": "U",
        "meta_norad_cat_id": 66624,
        "meta_element_set_no": 999,
        "meta_rev_at_epoch": 389,
        "meta_bstar": -0.028078006,
        "meta_mean_motion_dot": -0.01980791,
        "meta_mean_motion_ddot": 0,
        "tle_line1": "1 66624U 25271H   25344.58336806 -.01980791  00000+0 -28078-1 0  9990",
        "tle_line2": "2 66624  53.1604 197.5989 0001020 118.3830 146.7606 15.59337349  3899"
      },
      "geometry": {
        "type": "Point",
        "coordinates": [
          -114.215053594566,
          45.43401613715815
        ]
      }
    },
    {
      "type": "Feature",
      "properties": {
        "norad_id": 66625,
        "name": "STARLINK-35929",
        "group": "last-30-days",
        "lat": 47.32565367309377,
        "lon": -109.381715028827,
        "alt_km": 386.32399004267154,
        "timestamp": "2025-12-10T20:49:51.345721+00:00",
        "meta_object_name": "STARLINK-35929",
        "meta_object_id": "2025-271J",
        "meta_epoch": "2025-12-10T14:00:03.000384",
        "meta_mean_motion": 15.59337783,
        "meta_eccentricity": 0.00012089,
        "meta_inclination": 53.1603,
        "meta_ra_of_asc_node": 197.5899,
        "meta_arg_of_pericenter": 122.4412,
        "meta_mean_anomaly": 146.5363,
        "meta_ephemeris_type": 0,
        "meta_classification_type": "U",
        "meta_norad_cat_id": 66625,
        "meta_element_set_no": 999,
        "meta_rev_at_epoch": 389,
        "meta_bstar": -0.028096058,
        "meta_mean_motion_dot": -0.01982067,
        "meta_mean_motion_ddot": 0,
        "tle_line1": "1 66625U 25271J   25344.58336806 -.01982067  00000+0 -28096-1 0  9999",
        "tle_line2": "2 66625  53.1603 197.5899 0001208 122.4412 146.5363 15.59337783  3899"
      },
      "geometry": {
        "type": "Point",
        "coordinates": [
          -109.381715028827,
          47.32565367309377
        ]
      }
    },
    {
      "type": "Feature",
      "properties": {
        "norad_id": 66626,
        "name": "STARLINK-35902",
        "group": "last-30-days",
        "lat": 48.19146571116347,
        "lon": -106.83697044792011,
        "alt_km": 386.22824794707594,
        "timestamp": "2025-12-10T20:49:51.345731+00:00",
        "meta_object_name": "STARLINK-35902",
        "meta_object_id": "2025-271K",
        "meta_epoch": "2025-12-10T14:00:03.000384",
        "meta_mean_motion": 15.59335383,
        "meta_eccentricity": 0.00010462,
        "meta_inclination": 53.1602,
        "meta_ra_of_asc_node": 197.5862,
        "meta_arg_of_pericenter": 121.401,
        "meta_mean_anomaly": 149.4912,
        "meta_ephemeris_type": 0,
        "meta_classification_type": "U",
        "meta_norad_cat_id": 66626,
        "meta_element_set_no": 999,
        "meta_rev_at_epoch": 389,
        "meta_bstar": -0.027995237,
        "meta_mean_motion_dot": -0.01975555,
        "meta_mean_motion_ddot": 0,
        "tle_line1": "1 66626U 25271K   25344.58336806 -.01975555  00000+0 -27995-1 0  9991",
        "tle_line2": "2 66626  53.1602 197.5862 0001046 121.4010 149.4912 15.59335383  3898"
      },
      "geometry": {
        "type": "Point",
        "coordinates": [
          -106.83697044792011,
          48.19146571116347
        ]
      }
    },
    {
      "type": "Feature",
      "properties": {
        "norad_id": 66627,
        "name": "STARLINK-35904",
        "group": "last-30-days",
        "lat": 49.000021792996144,
        "lon": -104.205180199385,
        "alt_km": 386.04570098419026,
        "timestamp": "2025-12-10T20:49:51.345743+00:00",
        "meta_object_name": "STARLINK-35904",
        "meta_object_id": "2025-271L",
        "meta_epoch": "2025-12-10T14:00:03.000384",
        "meta_mean_motion": 15.59334792,
        "meta_eccentricity": 0.00010641,
        "meta_inclination": 53.1602,
        "meta_ra_of_asc_node": 197.582,
        "meta_arg_of_pericenter": 117.1188,
        "meta_mean_anomaly": 155.6918,
        "meta_ephemeris_type": 0,
        "meta_classification_type": "U",
        "meta_norad_cat_id": 66627,
        "meta_element_set_no": 999,
        "meta_rev_at_epoch": 373,
        "meta_bstar": -0.027990422,
        "meta_mean_motion_dot": -0.01975229,
        "meta_mean_motion_ddot": 0,
        "tle_line1": "1 66627U 25271L   25344.58336806 -.01975229  00000+0 -27990-1 0  9995",
        "tle_line2": "2 66627  53.1602 197.5820 0001064 117.1188 155.6918 15.59334792  3732"
      },
      "geometry": {
        "type": "Point",
        "coordinates": [
          -104.205180199385,
          49.000021792996144
        ]
      }
    },
    {
      "type": "Feature",
      "properties": {
        "norad_id": 66628,
        "name": "STARLINK-35862",
        "group": "last-30-days",
        "lat": 49.74518224816299,
        "lon": -101.49478485730447,
        "alt_km": 385.9431884302521,
        "timestamp": "2025-12-10T20:49:51.345752+00:00",
        "meta_object_name": "STARLINK-35862",
        "meta_object_id": "2025-271M",
        "meta_epoch": "2025-12-10T14:00:03.000384",
        "meta_mean_motion": 15.59334665,
        "meta_eccentricity": 0.00011379,
        "meta_inclination": 53.1602,
        "meta_ra_of_asc_node": 197.5783,
        "meta_arg_of_pericenter": 123.1327,
        "meta_mean_anomaly": 151.5939,
        "meta_ephemeris_type": 0,
        "meta_classification_type": "U",
        "meta_norad_cat_id": 66628,
        "meta_element_set_no": 999,
        "meta_rev_at_epoch": 389,
        "meta_bstar": -0.027985872,
        "meta_mean_motion_dot": -0.0197499,
        "meta_mean_motion_ddot": 0,
        "tle_line1": "1 66628U 25271M   25344.58336806 -.01974990  00000+0 -27986-1 0  9995",
        "tle_line2": "2 66628  53.1602 197.5783 0001137 123.1327 151.5939 15.59334665  3898"
      },
      "geometry": {
        "type": "Point",
        "coordinates": [
          -101.49478485730447,
          49.74518224816299
        ]
      }
    }
  ]
}